SITRO-AIS-62            
1 67296U 25313BA  26027.59872257  .00016633  00000+0  72853-3 0  9992
2 67296  97.4099 104.6135 0010283 126.9933 233.2245 15.22045097  4579
SITRO-AIS-61            
1 67297U 25313BB  26027.59756705  .00016416  00000+0  71791-3 0  9991
2 67297  97.4101 104.6150 0010015 128.9808 231.2322 15.22103759  4571
TIANHUI 7               
1 67300U 25314A   26020.93104818  .00004960  00000+0  19817-3 0  9992
2 67300  97.4187  97.9671 0001561 100.1824 259.9591 15.25587940  3337
CZ-4B R/B               
1 67301U 25314B   26027.59626298  .00141882  82181-5  62068-3 0  9990
2 67301  97.3706 106.3076 0130206 271.2118  87.4232 15.72842041  4428
SHIJIAN-29A (SJ-29A)    
1 67302U 25315A   26027.77935653 -.00000061  00000+0  00000+0 0  9992
2 67302   3.0413  98.8229 0001382 292.9509  88.8522  1.00270850   218
CZ-7A R/B               
1 67303U 25315B   26027.25642407  .00074230  52620-6  24455-2 0  9991
2 67303  19.6072  88.9584 7175034 200.1807 102.4165  2.45785891   674
CSG-3                   
1 67304U 26001A   26027.64300097  .00000767  00000+0  10201-3 0  9991
2 67304  97.8454 213.2943 0001608  82.7680 277.3716 14.82512364  3641
STARLINK-36490          
1 67305U 26002A   26027.58337963 -.02142992  00000+0 -31714-1 0  9999
2 67305  42.9989 199.5316 0001312 272.4773 240.4787 15.57689868  4860
STARLINK-36488          
1 67306U 26002B   26027.58337963 -.02136802  00000+0 -31617-1 0  9995
2 67306  42.9990 199.5274 0001221 271.1155 243.7614 15.57684957  4819
STARLINK-36481          
1 67307U 26002C   26027.58337963 -.02125147  00000+0 -31438-1 0  9997
2 67307  42.9991 199.5177 0001225 282.6627 236.0573 15.57673006  4810
STARLINK-36449          
1 67308U 26002D   26027.58337963 -.02139626  00000+0 -31663-1 0  9995
2 67308  42.9989 199.5127 0001284 270.8998 249.7286 15.57685681  4867
STARLINK-36482          
1 67309U 26002E   26027.58337963 -.02141010  00000+0 -31683-1 0  9998
2 67309  42.9990 199.4898 0001212 273.3187 256.8913 15.57688694  4811
